ONEWEB-0057             
1 45160U 20008AF  24282.17887083  .00000396  00000+0  10990-2 0  9994
2 45160  87.8961 159.0915 0001544  76.9640 283.1660 13.10375179228031
ONEWEB-0058             
1 45161U 20008AG  24282.16572212 -.00000230  00000+0 -69430-3 0  9992
2 45161  87.8957 159.1225 0001708  78.3946 281.7373 13.10375308228364
ONEWEB-0059             
1 45162U 20008AH  24282.16225793 -.00000446  00000+0 -13152-2 0  9990
2 45162  87.8962 159.1083 0001721  75.4313 284.7005 13.10374835228251
ONEWEB-0062             
1 45163U 20008AJ  24282.18881861 -.00000138  00000+0 -43177-3 0  9996
2 45163  87.8954 159.0868 0001986  72.6077 287.5267 13.10373291228135
ONEWEB-0065             
1 45164U 20008AK  24282.16724132 -.00000134  00000+0 -42104-3 0  9997
2 45164  87.8966 159.1022 0001432  74.2760 285.8525 13.10375925227813
ONEWEB-0066             
1 45424U 20020A   24282.13471327  .00000350  00000+0  95041-3 0  9998
2 45424  87.8934 143.9785 0001645  93.3470 266.7846 13.11418633221813
ONEWEB-0067             
1 45425U 20020B   24281.86697968 -.00000109  00000+0 -34239-3 0  9995
2 45425  87.8917 143.9790 0001438  86.8690 273.2602 13.11413317221831
